[{"OBJECT_NAME":"STARLINK-2563","OBJECT_ID":"2021-038BK","EPOCH":"2026-03-10T00:00:02.999808","MEAN_MOTION":15.24145357,"ECCENTRICITY":8.38e-5,"INCLINATION":53.1328,"RA_OF_ASC_NODE":294.6315,"ARG_OF_PERICENTER":99.3538,"MEAN_ANOMALY":165.2614,"EPHEMERIS_TYPE":0,"CLASSIFICATION_TYPE":"U","NORAD_CAT_ID":48410,"ELEMENT_SET_NO":999,"REV_AT_EPOCH":574,"BSTAR":0.067627981,"MEAN_MOTION_DOT":0.01832108,"MEAN_MOTION_DDOT":0},{"OBJECT_NAME":"FLOCK 4Q-15","OBJECT_ID":"2023-174BR","EPOCH":"2026-03-09T17:07:14.348064","MEAN_MOTION":15.6037578,"ECCENTRICITY":0.00042292,"INCLINATION":97.3891,"RA_OF_ASC_NODE":159.5991,"ARG_OF_PERICENTER":148.7348,"MEAN_ANOMALY":211.4161,"EPHEMERIS_TYPE":0,"CLASSIFICATION_TYPE":"U","NORAD_CAT_ID":58319,"ELEMENT_SET_NO":999,"REV_AT_EPOCH":13047,"BSTAR":0.0015054083,"MEAN_MOTION_DOT":0.00124969,"MEAN_MOTION_DDOT":0}]
